ONEWEB-0207             
1 48242U 21031AJ  25355.44317653  .00000266  00000+0  68213-3 0  9996
2 48242  87.9008 325.1031 0001692  90.1626 269.9698 13.14502696224948
ONEWEB-0208             
1 48243U 21031AK  25355.34881492 -.00000041  00000+0 -14406-3 0  9991
2 48243  87.9001 325.1357 0001591  76.5454 283.5853 13.14501563224945
ONEWEB-0200             
1 48244U 21031AL  25355.38846549  .00000061  00000+0  12965-3 0  9998
2 48244  87.9001 325.1174 0001684  82.9807 277.1515 13.14501397224870
ONEWEB-0217             
1 48245U 21031AM  25355.48041675 -.00000090  00000+0 -27722-3 0  9998
2 48245  87.9007 325.0940 0001562  75.8462 284.2841 13.14499530224832
ONEWEB-0211             
1 48767U 21045A   25355.22449240 -.00000058  00000+0 -18768-3 0  9998
2 48767  87.9002 294.6293 0001635  67.0519 293.0784 13.16137863221038
ONEWEB-0223             
1 48768U 21045B   25355.37123840  .00000163  00000+0  39799-3 0  9992
2 48768  87.9009 294.6654 0001973  64.8725 295.2610 13.15549175221029
ONEWEB-0230             
1 48769U 21045C   25355.34270240  .00000061  00000+0  12826-3 0  9996
2 48769  87.9001 294.7004 0001932  80.6205 279.5143 13.15550006221285
ONEWEB-0237             
1 48770U 21045D   25355.25555678 -.00000126  00000+0 -36910-3 0  9993
2 48770  87.9000 294.7185 0002010  70.6898 289.4450 13.15550209220994
